{"type": "FeatureCollection", "features": [ {"type": "Feature", "properties": {"norad_id": 58662, "name": "TIANMU-1 21", "group": "weather", "lat": 30.21403687080185, "lon": -60.996324537428166, "alt_km": 465.99362996898526, "timestamp": "2025-12-27T04:40:45.143198+00:00", "meta": {"OBJECT_NAME": "TIANMU-1 21", "OBJECT_ID": "2023-208C", "EPOCH": "2025-12-26T21:45:28.182816", "MEAN_MOTION": 15.31859038, "ECCENTRICITY": 0.00065536, "INCLINATION": 97.4371, "RA_OF_ASC_NODE": 114.3515, "ARG_OF_PERICENTER": 202.1922, "MEAN_ANOMALY": 157.9037, "EPHEMERIS_TYPE": 0, "CLASSIFICATION_TYPE": "U", "NORAD_CAT_ID": 58662, "ELEMENT_SET_NO": 999, "REV_AT_EPOCH": 11116, "BSTAR": 0.00039628135, "MEAN_MOTION_DOT": 0.00012125, "MEAN_MOTION_DDOT": 0}, "tle": {"line1": "1 58662U 23208C   25360.90657619  .00012125  00000+0  39628-3 0  9992", "line2": "2 58662  97.4371 114.3515 0006553 202.1922 157.9037 15.31859038111162"}}, "geometry": {"type": "Point", "coordinates": [-60.996324537428166, 30.21403687080185]}}, {"type": "Feature", "properties": {"norad_id": 58663, "name": "TIANMU-1 22", "group": "weather", "lat": -44.59769746270524, "lon": -75.14365061750017, "alt_km": 486.92700753821646, "timestamp": "2025-12-27T04:40:45.143212+00:00", "meta": {"OBJECT_NAME": "TIANMU-1 22", "OBJECT_ID": "2023-208D", "EPOCH": "2025-12-26T22:58:54.516288", "MEAN_MOTION": 15.2784812, "ECCENTRICITY": 0.00030778, "INCLINATION": 97.4379, "RA_OF_ASC_NODE": 112.0209, "ARG_OF_PERICENTER": 215.7812, "MEAN_ANOMALY": 144.3221, "EPHEMERIS_TYPE": 0, "CLASSIFICATION_TYPE": "U", "NORAD_CAT_ID": 58663, "ELEMENT_SET_NO": 999, "REV_AT_EPOCH": 11100, "BSTAR": 0.00037365652, "MEAN_MOTION_DOT": 0.0001009, "MEAN_MOTION_DDOT": 0}, "tle": {"line1": "1 58663U 23208D   25360.95757542  .00010090  00000+0  37366-3 0  9990", "line2": "2 58663  97.4379 112.0209 0003077 215.7812 144.3221 15.27848120111005"}}, "geometry": {"type": "Point", "coordinates": [-75.14365061750017, -44.59769746270524]}}, {"type": "Feature", "properties": {"norad_id": 58700, "name": "TIANMU-1 15", "group": "weather", "lat": -7.245875615858562, "lon": 1.6553315186391897, "alt_km": 492.82108942462037, "timestamp": "2025-12-27T04:40:45.143226+00:00", "meta": {"OBJECT_NAME": "TIANMU-1 15", "OBJECT_ID": "2024-004A", "EPOCH": "2025-12-26T23:08:04.955136", "MEAN_MOTION": 15.2460002, "ECCENTRICITY": 0.00061256, "INCLINATION": 97.4631, "RA_OF_ASC_NODE": 182.3802, "ARG_OF_PERICENTER": 229.7335, "MEAN_ANOMALY": 130.3367, "EPHEMERIS_TYPE": 0, "CLASSIFICATION_TYPE": "U", "NORAD_CAT_ID": 58700, "ELEMENT_SET_NO": 999, "REV_AT_EPOCH": 10951, "BSTAR": 0.0003356495, "MEAN_MOTION_DOT": 8.21e-05, "MEAN_MOTION_DDOT": 0}, "tle": {"line1": "1 58700U 24004A   25360.96394624  .00008210  00000+0  33565-3 0  9994", "line2": "2 58700  97.4631 182.3802 0006125 229.7335 130.3367 15.24600020109510"}}, "geometry": {"type": "Point", "coordinates": [1.6553315186391897, -7.245875615858562]}}, {"type": "Feature", "properties": {"norad_id": 58701, "name": "TIANMU-1 16", "group": "weather", "lat": -82.53561098025973, "lon": -89.38715476891413, "alt_km": 496.9007971496949, "timestamp": "2025-12-27T04:40:45.143236+00:00", "meta": {"OBJECT_NAME": "TIANMU-1 16", "OBJECT_ID": "2024-004B", "EPOCH": "2025-12-26T22:46:19.446816", "MEAN_MOTION": 15.24625956, "ECCENTRICITY": 0.00044734, "INCLINATION": 97.4571, "RA_OF_ASC_NODE": 181.7426, "ARG_OF_PERICENTER": 231.3751, "MEAN_ANOMALY": 128.7087, "EPHEMERIS_TYPE": 0, "CLASSIFICATION_TYPE": "U", "NORAD_CAT_ID": 58701, "ELEMENT_SET_NO": 999, "REV_AT_EPOCH": 10951, "BSTAR": 0.0003111739, "MEAN_MOTION_DOT": 7.61e-05, "MEAN_MOTION_DDOT": 0}, "tle": {"line1": "1 58701U 24004B   25360.94883619  .00007610  00000+0  31117-3 0  9994", "line2": "2 58701  97.4571 181.7426 0004473 231.3751 128.7087 15.24625956109519"}}, "geometry": {"type": "Point", "coordinates": [-89.38715476891413, -82.53561098025973]}}, {"type": "Feature", "properties": {"norad_id": 58702, "name": "TIANMU-1 17", "group": "weather", "lat": -3.152437026602383, "lon": -177.18137052834484, "alt_km": 496.73660137417755, "timestamp": "2025-12-27T04:40:45.143249+00:00", "meta": {"OBJECT_NAME": "TIANMU-1 17", "OBJECT_ID": "2024-004C", "EPOCH": "2025-12-26T23:58:03.961344", "MEAN_MOTION": 15.24670731, "ECCENTRICITY": 0.00036498, "INCLINATION": 97.4605, "RA_OF_ASC_NODE": 182.2096, "ARG_OF_PERICENTER": 231.5663, "MEAN_ANOMALY": 128.5248, "EPHEMERIS_TYPE": 0, "CLASSIFICATION_TYPE": "U", "NORAD_CAT_ID": 58702, "ELEMENT_SET_NO": 999, "REV_AT_EPOCH": 10951, "BSTAR": 0.00035242247, "MEAN_MOTION_DOT": 8.64e-05, "MEAN_MOTION_DDOT": 0}, "tle": {"line1": "1 58702U 24004C   25360.99865696  .00008640  00000+0  35242-3 0  9992", "line2": "2 58702  97.4605 182.2096 0003649 231.5663 128.5248 15.24670731109513"}}, "geometry": {"type": "Point", "coordinates": [-177.18137052834484, -3.152437026602383]}}, {"type": "Feature", "properties": {"norad_id": 58703, "name": "TIANMU-1 18", "group": "weather", "lat": 82.16230701040982, "lon": 110.39064853571176, "alt_km": 485.9504934091301, "timestamp": "2025-12-27T04:40:45.143260+00:00", "meta": {"OBJECT_NAME": "TIANMU-1 18", "OBJECT_ID": "2024-004D", "EPOCH": "2025-12-26T23:34:14.767968", "MEAN_MOTION": 15.24652875, "ECCENTRICITY": 0.00030538, "INCLINATION": 97.4622, "RA_OF_ASC_NODE": 182.3915, "ARG_OF_PERICENTER": 227.6646, "MEAN_ANOMALY": 132.4333, "EPHEMERIS_TYPE": 0, "CLASSIFICATION_TYPE": "U", "NORAD_CAT_ID": 58703, "ELEMENT_SET_NO": 999, "REV_AT_EPOCH": 10951, "BSTAR": 0.00034067303, "MEAN_MOTION_DOT": 8.344e-05, "MEAN_MOTION_DDOT": 0}, "tle": {"line1": "1 58703U 24004D   25360.98211537  .00008344  00000+0  34067-3 0  9996", "line2": "2 58703  97.4622 182.3915 0003053 227.6646 132.4333 15.24652875109518"}}, "geometry": {"type": "Point", "coordinates": [110.39064853571176, 82.16230701040982]}}, {"type": "Feature", "properties": {"norad_id": 58990, "name": "INSAT-3DS", "group": "weather", "lat": 0.0158394231493819, "lon": -111.79219535371284, "alt_km": 35781.326021945984, "timestamp": "2025-12-27T04:40:45.143271+00:00", "meta": {"OBJECT_NAME": "INSAT-3DS", "OBJECT_ID": "2024-033A", "EPOCH": "2025-12-26T22:27:50.907168", "MEAN_MOTION": 1.00270784, "ECCENTRICITY": 0.00013651, "INCLINATION": 0.0642, "RA_OF_ASC_NODE": 98.7503, "ARG_OF_PERICENTER": 178.6019, "MEAN_ANOMALY": 237.3902, "EPHEMERIS_TYPE": 0, "CLASSIFICATION_TYPE": "U", "NORAD_CAT_ID": 58990, "ELEMENT_SET_NO": 999, "REV_AT_EPOCH": 4534, "BSTAR": 0, "MEAN_MOTION_DOT": -1.34e-06, "MEAN_MOTION_DDOT": 0}, "tle": {"line1": "1 58990U 24033A   25360.93600587 -.00000134  00000+0  00000+0 0  9994", "line2": "2 58990   0.0642  98.7503 0001365 178.6019 237.3902  1.00270784 45345"}}, "geometry": {"type": "Point", "coordinates": [-111.79219535371284, 0.0158394231493819]}}, {"type": "Feature", "properties": {"norad_id": 59051, "name": "METEOR-M2 4", "group": "weather", "lat": -4.638773602983312, "lon": -41.41136785823958, "alt_km": 817.293534561305, "timestamp": "2025-12-27T04:40:45.143282+00:00", "meta": {"OBJECT_NAME": "METEOR-M2 4", "OBJECT_ID": "2024-039A", "EPOCH": "2025-12-26T23:38:11.311296", "MEAN_MOTION": 14.22403537, "ECCENTRICITY": 0.00063207, "INCLINATION": 98.6787, "RA_OF_ASC_NODE": 317.6717, "ARG_OF_PERICENTER": 315.2621, "MEAN_ANOMALY": 44.8047, "EPHEMERIS_TYPE": 0, "CLASSIFICATION_TYPE": "U", "NORAD_CAT_ID": 59051, "ELEMENT_SET_NO": 999, "REV_AT_EPOCH": 9478, "BSTAR": 4.6730788e-05, "MEAN_MOTION_DOT": 6e-07, "MEAN_MOTION_DDOT": 0}, "tle": {"line1": "1 59051U 24039A   25360.98485314  .00000060  00000+0  46731-4 0  9996", "line2": "2 59051  98.6787 317.6717 0006320 315.2621  44.8047 14.22403537 94786"}}, "geometry": {"type": "Point", "coordinates": [-41.41136785823958, -4.638773602983312]}}, {"type": "Feature", "properties": {"norad_id": 60133, "name": "GOES 19", "group": "weather", "lat": 0.01086901767181968, "lon": 90.91517275590921, "alt_km": 35790.46472107132, "timestamp": "2025-12-27T04:40:45.143295+00:00", "meta": {"OBJECT_NAME": "GOES 19", "OBJECT_ID": "2024-119A", "EPOCH": "2025-12-26T12:35:56.409216", "MEAN_MOTION": 1.00266665, "ECCENTRICITY": 9.47e-05, "INCLINATION": 0.0307, "RA_OF_ASC_NODE": 217.6802, "ARG_OF_PERICENTER": 97.1965, "MEAN_ANOMALY": 254.1873, "EPHEMERIS_TYPE": 0, "CLASSIFICATION_TYPE": "U", "NORAD_CAT_ID": 60133, "ELEMENT_SET_NO": 999, "REV_AT_EPOCH": 523, "BSTAR": 0, "MEAN_MOTION_DOT": -2.26e-06, "MEAN_MOTION_DDOT": 0}, "tle": {"line1": "1 60133U 24119A   25360.52495844 -.00000226  00000+0  00000+0 0  9996", "line2": "2 60133   0.0307 217.6802 0000947  97.1965 254.1873  1.00266665  5230"}}, "geometry": {"type": "Point", "coordinates": [90.91517275590921, 0.01086901767181968]}}, {"type": "Feature", "properties": {"norad_id": 65815, "name": "FENGYUN 3H", "group": "weather", "lat": 73.08643794224562, "lon": 150.55288701722372, "alt_km": 817.9983510745578, "timestamp": "2025-12-27T04:40:45.143306+00:00", "meta": {"OBJECT_NAME": "FENGYUN 3H", "OBJECT_ID": "2025-219A", "EPOCH": "2025-12-26T21:25:25.718592", "MEAN_MOTION": 14.19908581, "ECCENTRICITY": 8.745e-05, "INCLINATION": 98.6603, "RA_OF_ASC_NODE": 300.1769, "ARG_OF_PERICENTER": 109.9836, "MEAN_ANOMALY": 250.1435, "EPHEMERIS_TYPE": 0, "CLASSIFICATION_TYPE": "U", "NORAD_CAT_ID": 65815, "ELEMENT_SET_NO": 999, "REV_AT_EPOCH": 1293, "BSTAR": 7.8012117e-05, "MEAN_MOTION_DOT": 1.22e-06, "MEAN_MOTION_DDOT": 0}, "tle": {"line1": "1 65815U 25219A   25360.89265878  .00000122  00000+0  78012-4 0  9999", "line2": "2 65815  98.6603 300.1769 0000874 109.9836 250.1435 14.19908581 12931"}}, "geometry": {"type": "Point", "coordinates": [150.55288701722372, 73.08643794224562]}}]}